     2              NAVIGATION DATA                         RINEX VERSION / TYPE
CCRINEXN V1.6.0 UX  CDDIS               05-OCT-16 15:33     PGM / RUN BY / DATE 
IGS BROADCAST EPHEMERIS FILE                                COMMENT             
    0.1024D-07  0.7451D-08 -0.5960D-07 -0.5960D-07          ION ALPHA           
    0.8806D+05  0.0000D+00 -0.1966D+06 -0.6554D+05          ION BETA            
    0.558793544769D-08 0.195399252334D-13   405504     1917 DELTA-UTC: A0,A1,T,W
    17                                                      LEAP SECONDS        
                                                            END OF HEADER       
25 16 10  4 16  0  0.0-0.257561448961D-03-0.693489710102D-11 0.000000000000D+00
    0.116000000000D+03-0.795625000000D+02 0.411517141341D-08 0.623801016868D+00
   -0.433996319771D-05 0.560716202017D-02 0.650063157082D-05 0.515369379807D+04
    0.230400000000D+06-0.484287738800D-07-0.354418619050D+00 0.558793544769D-07
    0.978414416145D+00 0.265593750000D+03 0.780803042621D+00-0.804176354316D-08
   -0.243581574722D-09 0.100000000000D+01 0.191700000000D+04 0.000000000000D+00
    0.280000000000D+01 0.000000000000D+00 0.558793544769D-08 0.116000000000D+03
    0.225600000000D+06 0.400000000000D+01 0.000000000000D+00 0.000000000000D+00
26 16 10  4 16  0  0.0-0.481198076159D-03-0.648014975013D-11 0.000000000000D+00
    0.810000000000D+02-0.873125000000D+02 0.447304346307D-08 0.204299871555D+00
   -0.448711216450D-05 0.102742691524D-02 0.644847750664D-05 0.515359044838D+04
    0.230400000000D+06 0.316649675369D-07-0.365679662106D+00-0.335276126862D-07
    0.960305534020D+00 0.253500000000D+03-0.130659553946D+00-0.817712632442D-08
   -0.221080637467D-09 0.100000000000D+01 0.191700000000D+04 0.000000000000D+00
    0.200000000000D+01 0.000000000000D+00 0.698491930962D-08 0.810000000000D+02
    0.223200000000D+06 0.400000000000D+01 0.000000000000D+00 0.000000000000D+00
27 16 10  4 16  0  0.0 0.147566199303D-03 0.488853402203D-11 0.000000000000D+00
    0.350000000000D+02-0.612500000000D+01 0.412231456809D-08-0.171239338630D+01
   -0.525265932083D-06 0.382864940912D-02 0.109467655420D-04 0.515365444183D+04
    0.230400000000D+06 0.000000000000D+00 0.685571815515D+00-0.689178705216D-07
    0.972719878784D+00 0.174187500000D+03 0.339263845438D+00-0.774139388870D-08
    0.398230873629D-09 0.100000000000D+01 0.191700000000D+04 0.000000000000D+00
    0.200000000000D+01 0.000000000000D+00 0.186264514923D-08 0.350000000000D+02
    0.223200000000D+06 0.400000000000D+01 0.000000000000D+00 0.000000000000D+00
28 16 10  4 16  0  0.0 0.556827057153D-03 0.284217094304D-11 0.000000000000D+00
    0.820000000000D+02-0.792187500000D+02 0.396587948051D-08-0.867490036705D+00
   -0.392459332943D-05 0.199258455541D-01 0.749342143536D-05 0.515363146591D+04
    0.230400000000D+06-0.257045030594D-06-0.278377554857D+00 0.229105353355D-06
    0.989574289638D+00 0.256406250000D+03-0.161080971539D+01-0.817641200895D-08
   -0.145363197818D-09 0.100000000000D+01 0.191700000000D+04 0.000000000000D+00
    0.400000000000D+01 0.000000000000D+00-0.107102096081D-07 0.820000000000D+02
    0.223200000000D+06 0.400000000000D+01 0.000000000000D+00 0.000000000000D+00
29 16 10  4 16  0  0.0 0.648846849799D-03-0.125055521494D-11 0.000000000000D+00
    0.189000000000D+03-0.193750000000D+01 0.403338229228D-08 0.287843963159D+00
   -0.558793544769D-08 0.517696142197D-03 0.106375664473D-04 0.515374426269D+04
    0.230400000000D+06 0.447034835815D-07 0.746069419003D+00-0.130385160446D-07
    0.978759613609D+00 0.189093750000D+03 0.840212311130D-01-0.770032074927D-08
    0.406088343781D-09 0.100000000000D+01 0.191700000000D+04 0.000000000000D+00
    0.280000000000D+01 0.000000000000D+00-0.102445483208D-07 0.189000000000D+03
    0.228630000000D+06 0.400000000000D+01 0.000000000000D+00 0.000000000000D+00
30 16 10  4 16  0  0.0 0.152900815010D-03 0.136424205266D-11 0.000000000000D+00
    0.820000000000D+02 0.454062500000D+02 0.493627704432D-08 0.178053822142D+01
    0.242516398430D-05 0.239280075766D-02 0.298395752907D-05 0.515376317978D+04
    0.230400000000D+06-0.633299350738D-07-0.133873717214D+01-0.260770320892D-07
    0.950383943146D+00 0.317375000000D+03-0.312568949644D+01-0.849392523465D-08
    0.102861427449D-09 0.100000000000D+01 0.191700000000D+04 0.000000000000D+00
    0.200000000000D+01 0.000000000000D+00 0.372529029846D-08 0.820000000000D+02
    0.223218000000D+06 0.400000000000D+01 0.000000000000D+00 0.000000000000D+00
31 16 10  4 16  0  0.0 0.244354363531D-03-0.216004991671D-11 0.000000000000D+00
    0.530000000000D+02 0.433750000000D+02 0.440339770490D-08 0.160816316638D+01
    0.242702662945D-05 0.836283911485D-02 0.290386378765D-05 0.515356421089D+04
    0.230400000000D+06 0.298023223877D-07-0.137111442387D+01 0.152736902237D-06
    0.969397556716D+00 0.325343750000D+03-0.376628751048D+00-0.819248410699D-08
    0.421446126351D-10 0.100000000000D+01 0.191700000000D+04 0.000000000000D+00
    0.200000000000D+01 0.000000000000D+00-0.135041773319D-07 0.530000000000D+02
    0.223200000000D+06 0.400000000000D+01 0.000000000000D+00 0.000000000000D+00
32 16 10  4 16  0  0.0-0.140758231282D-03-0.153477230924D-10 0.000000000000D+00
    0.120000000000D+02 0.628750000000D+02 0.429767901558D-08-0.127916414605D+01
    0.317208468914D-05 0.633036834188D-03 0.104475766420D-04 0.515365803146D+04
    0.230400000000D+06 0.968575477600D-07-0.245783763165D+01-0.149011611938D-07
    0.959264742415D+00 0.182562500000D+03-0.236185597585D+01-0.789747181854D-08
   -0.785747015231D-10 0.100000000000D+01 0.191700000000D+04 0.000000000000D+00
    0.200000000000D+01 0.000000000000D+00 0.931322574616D-09 0.120000000000D+02
    0.223200000000D+06 0.400000000000D+01 0.000000000000D+00 0.000000000000D+00
20 16 10  4 17 59 28.0 0.439082738012D-03 0.193267624127D-11 0.000000000000D+00
    0.300000000000D+02-0.364687500000D+02 0.556166023690D-08-0.156235057888D+01
   -0.178441405296D-05 0.469477567822D-02 0.692345201969D-05 0.515358598518D+04
    0.237568000000D+06 0.279396772385D-07 0.269627096029D+01 0.102445483208D-06
    0.926722656393D+00 0.227343750000D+03 0.145180247953D+01-0.851892627604D-08
   -0.415374444870D-09 0.100000000000D+01 0.191700000000D+04 0.000000000000D+00
    0.200000000000D+01 0.000000000000D+00-0.838190317154D-08 0.300000000000D+02
    0.234630000000D+06 0.400000000000D+01 0.000000000000D+00 0.000000000000D+00
11 16 10  4 17 59 44.0-0.666036270559D-03-0.113686837722D-11 0.000000000000D+00
    0.300000000000D+01 0.449062500000D+02 0.609918262687D-08 0.290264872411D+01
    0.212714076042D-05 0.168168129167D-01 0.643730163574D-05 0.515367868996D+04
    0.237584000000D+06 0.244006514549D-06 0.135714689020D+01-0.651925802231D-07
    0.897754248096D+00 0.217937500000D+03 0.158284889923D+01-0.857178562071D-08
    0.439304013061D-09 0.100000000000D+01 0.191700000000D+04 0.000000000000D+00
    0.200000000000D+01 0.000000000000D+00-0.121071934700D-07 0.300000000000D+01
    0.230400000000D+06 0.400000000000D+01 0.000000000000D+00 0.000000000000D+00
14 16 10  4 17 59 44.0-0.384091399610D-04-0.193267624127D-11 0.000000000000D+00
    0.400000000000D+01 0.698125000000D+02 0.429660751422D-08-0.113578717752D+01
    0.358745455742D-05 0.875018152874D-02 0.973418354988D-05 0.515359780312D+04
    0.237584000000D+06 0.465661287308D-07-0.237512838204D+01 0.230967998505D-06
    0.963414837661D+00 0.196343750000D+03-0.194275350058D+01-0.799140398300D-08
   -0.653598633549D-10 0.100000000000D+01 0.191700000000D+04 0.000000000000D+00
    0.200000000000D+01 0.000000000000D+00-0.931322574616D-08 0.400000000000D+01
    0.230430000000D+06 0.000000000000D+00 0.000000000000D+00 0.000000000000D+00
17 16 10  4 17 59 44.0-0.201522838324D-03 0.568434188608D-12 0.000000000000D+00
    0.220000000000D+02-0.859375000000D+01 0.407266964304D-08-0.697368886385D+00
   -0.303611159325D-06 0.112443747930D-01 0.111870467663D-04 0.515375695801D+04
    0.237584000000D+06-0.104308128357D-06 0.736158397712D+00 0.171363353729D-06
    0.977748324674D+00 0.177281250000D+03-0.192209325714D+01-0.790461497323D-08
    0.405731186047D-09 0.100000000000D+01 0.191700000000D+04 0.000000000000D+00
    0.200000000000D+01 0.000000000000D+00-0.107102096081D-07 0.220000000000D+02
    0.230400000000D+06 0.400000000000D+01 0.000000000000D+00 0.000000000000D+00
22 16 10  4 17 59 44.0 0.227657612413D-03-0.103455022327D-10 0.000000000000D+00
    0.170000000000D+02-0.368437500000D+02 0.557094633799D-08-0.119609028752D+01
   -0.183656811714D-05 0.740174623206D-02 0.758841633797D-05 0.515371086311D+04
    0.237584000000D+06-0.521540641785D-07 0.274825973923D+01 0.214204192162D-06
    0.923407349017D+00 0.211437500000D+03-0.186006636005D+01-0.855321341853D-08
   -0.462876423518D-09 0.100000000000D+01 0.191700000000D+04 0.000000000000D+00
    0.200000000000D+01 0.000000000000D+00-0.176951289177D-07 0.170000000000D+02
    0.233430000000D+06 0.400000000000D+01 0.000000000000D+00 0.000000000000D+00
25 16 10  4 17 59 44.0-0.257610809058D-03-0.693489710102D-11 0.000000000000D+00
    0.170000000000D+02-0.773437500000D+02 0.408195574413D-08 0.167178085375D+01
   -0.408291816711D-05 0.560655700974D-02 0.593066215515D-05 0.515369189644D+04
    0.237584000000D+06-0.596046447754D-07-0.354476322390D+00-0.931322574616D-08
    0.978412553850D+00 0.273187500000D+03 0.780655962300D+00-0.803104881113D-08
   -0.261082303697D-09 0.100000000000D+01 0.191700000000D+04 0.000000000000D+00
    0.200000000000D+01 0.000000000000D+00 0.558793544769D-08 0.170000000000D+02
    0.230400000000D+06 0.400000000000D+01 0.000000000000D+00 0.000000000000D+00
